stk.v.4.3 

BEGIN Ephemeris 
 
NumberOfEphemerisPoints		146 
ScenarioEpoch	    1 Sep 2020 20: 7:58.136466444 
InterpolationMethod		Lagrange 
InterpolationOrder		5 
CentralBody				Earth 
CoordinateSystem			TEME 
CoordinateSystemEpoch	  1 Sep 2020 20: 7:58.136466444 
DistanceUnit			Kilometers 
 
EphemerisTimePosVel 
 
       0.00000000   -5551.25325068   -4477.58881626       0.04431872  0.301312525 -0.351402930  7.458291862
 END Ephemeris 
